{"type": "FeatureCollection", "features": [{"type": "Feature", "geometry": {"type": "Polygon", "coordinates": [[[-93.27493996852816, 44.97340782795066], [-93.2749999760896, 44.97343303842112], [-93.27532813545636, 44.973045073008926], [-93.27526278084643, 44.9730178807602], [-93.27507949194056, 44.97294162019019], [-93.27489620478775, 44.97286535932073], [-93.27471291811554, 44.9727890972547], [-93.27452963193251, 44.97271283579257], [-93.27434634496618, 44.97263657403713], [-93.27416305974863, 44.97256031108208], [-93.27393488791999, 44.97283600746246], [-93.27393292716417, 44.972838376983404], [-93.27429991110783, 44.972991636897184], [-93.27424078599127, 44.973063079899646], [-93.27442282733136, 44.97313956355979], [-93.2746056481237, 44.97321637452667], [-93.27457432913742, 44.97325420859389], [-93.27472058465902, 44.97331565629812], [-93.27475714922329, 44.973331018418186], [-93.27493996852816, 44.97340782795066]]]}, "properties": {"name": "Quarry Terrace parcel", "county": "Hennepin"}}, {"type": "Feature", "geometry": {"type": "Polygon", "coordinates": [[[-93.27051143827447, 44.97366600348532], [-93.27018155353774, 44.97405664708504], [-93.27040061163866, 44.97414952856955], [-93.27061967044976, 44.97424241053093], [-93.27094928450963, 44.97385151876647], [-93.27073036167388, 44.97375876133581], [-93.27051143827447, 44.97366600348532]]]}, "properties": {"name": "Copper Plaza parcel", "county": "Hennepin"}}, {"type": "Feature", "geometry": {"type": "Polygon", "coordinates": [[[-93.27246466399104, 44.98197899884758], [-93.27264647110279, 44.98210657188162], [-93.27308920093226, 44.981789262736456], [-93.27290729146043, 44.98166176446075], [-93.27272538153083, 44.981534266793794], [-93.27254347240329, 44.98140676793204], [-93.2723249946163, 44.98156335334161], [-93.2726887100409, 44.98181842372266], [-93.27246466399104, 44.98197899884758]]]}, "properties": {"name": "Cedar Executive Park parcel", "county": "Hennepin"}}, {"type": "Feature", "geometry": {"type": "Polygon", "coordinates": [[[-93.26844566516785, 44.97200866299307], [-93.26848240889167, 44.97202409331918], [-93.2688053263512, 44.971634278364334], [-93.26862205290638, 44.971558007375464], [-93.26829868791606, 44.971946937974835], [-93.26844566516785, 44.97200866299307]]]}, "properties": {"name": "Falcon Corporate Center parcel", "county": "Hennepin"}}, {"type": "Feature", "geometry": {"type": "Polygon", "coordinates": [[[-93.25800652383927, 44.97973293813464], [-93.25825796944379, 44.97983957415119], [-93.25838326126178, 44.97968926228484], [-93.25830023100923, 44.97965405079648], [-93.25813214394677, 44.979582767130125], [-93.25817726151129, 44.97952883252021], [-93.25805399190844, 44.97947655587456], [-93.25818707843618, 44.979317717947524], [-93.258194708032, 44.979320954007555], [-93.25823432021669, 44.9792736770666], [-93.25825412564845, 44.97925003814225], [-93.25831728326824, 44.979276822871995], [-93.25845554711327, 44.979111190838424], [-93.25837648111543, 44.9790776600986], [-93.2582833048394, 44.97903814520518], [-93.25806437717625, 44.978945298775756], [-93.25784545022256, 44.97885245282374], [-93.25764625246418, 44.97908835859018], [-93.2575167741262, 44.97924169746143], [-93.2573404827799, 44.97945047312771], [-93.25772717594857, 44.97961446934229], [-93.25800652383927, 44.97973293813464]]]}, "properties": {"name": "Inlet Lofts parcel", "county": "Hennepin"}}, {"type": "Feature", "geometry": {"type": "Polygon", "coordinates": [[[-93.28125977415296, 44.989962772485455], [-93.28141022551895, 44.990069678029265], [-93.28148996610707, 44.99012633959328], [-93.2815970938005, 44.990107556699535], [-93.28159727504969, 44.990107524745795], [-93.28159728603124, 44.99010769485548], [-93.28159772195681, 44.990114077059], [-93.28217609516321, 44.990085866011036], [-93.28217438184011, 44.99000634076983], [-93.28222161948854, 44.98999805838382], [-93.28223231319875, 44.989996182958016], [-93.28221372080867, 44.98997752016291], [-93.28219916162388, 44.98995713252842], [-93.28218894731486, 44.98993545678056], [-93.28218329707443, 44.989912955978944], [-93.28205763896678, 44.98982341888501], [-93.28190739689431, 44.98971636424055], [-93.28175715537681, 44.989609308494934], [-93.28125977415296, 44.989962772485455]]]}, "properties": {"name": "Harvest Flats parcel", "county": "Hennepin"}}, {"type": "Feature", "geometry": {"type": "Polygon", "coordinates": [[[-93.25426109608354, 44.978358559478146], [-93.25435185454631, 44.97836213550611], [-93.25444238322058, 44.978367952562344], [-93.25467866493123, 44.978089510104724], [-93.25439590684927, 44.977970901203854], [-93.2544456909556, 44.9779111135834], [-93.25475371905353, 44.97754118525559], [-93.25440544550021, 44.97739346700795], [-93.25375728925562, 44.977118548705654], [-93.25332536867302, 44.97762928340994], [-93.25319291602496, 44.97778590433125], [-93.25278949353766, 44.97826292803011], [-93.25295657968668, 44.978291835152575], [-93.25312572981606, 44.97831388516192], [-93.25329638422663, 44.978329006374516], [-93.25346797950307, 44.978337147822806], [-93.25399915462694, 44.97835148888124], [-93.25419885766293, 44.97835687962893], [-93.25426109608354, 44.978358559478146]]]}, "properties": {"name": "Redstone Marketplace parcel", "county": "Hennepin"}}, {"type": "Feature", "geometry": {"type": "Polygon", "coordinates": [[[-93.26892709842078, 44.97536686384316], [-93.26947518203404, 44.97559967257282], [-93.26958453559914, 44.975469987814265], [-93.26969388994038, 44.97534030294623], [-93.26977341948641, 44.97524598694037], [-93.26911561465694, 44.97496670721388], [-93.26910368962417, 44.97498085129929], [-93.26866522895743, 44.97479468948445], [-93.26837901923071, 44.97513405156298], [-93.26859824961284, 44.97522717643482], [-93.26881748197158, 44.97532030087959], [-93.26892709842078, 44.97536686384316]]]}, "properties": {"name": "Crescent Tower parcel", "county": "Hennepin"}}, {"type": "Feature", "geometry": {"type": "Polygon", "coordinates": [[[-93.27056395789225, 44.975618540131585], [-93.27059711786261, 44.9756326189607], [-93.27060663629824, 44.97562133674742], [-93.27069406523141, 44.9755177068566], [-93.27079937783166, 44.97539287987062], [-93.2709782093136, 44.975180909461166], [-93.27094504446809, 44.97516683705453], [-93.27039661840254, 44.974934138794524], [-93.27030726042148, 44.97504011264546], [-93.27021790211612, 44.97514608732541], [-93.27001577362819, 44.9753857998797], [-93.27056395789225, 44.975618540131585]]]}, "properties": {"name": "Ember Tower parcel", "county": "Hennepin"}}, {"type": "Feature", "geometry": {"type": "Polygon", "coordinates": [[[-93.09612806291064, 44.945504695394476, 0], [-93.09630416147704, 44.945687637836635, 0], [-93.09636758013389, 44.94575352119322, 0], [-93.09637477517272, 44.94576099599155, 0], [-93.09654881691367, 44.94594180024406, 0], [-93.09670957050415, 44.945957343602615, 0], [-93.09665199347157, 44.945716269685725, 0], [-93.09663261925066, 44.945635150075866, 0], [-93.09659645495266, 44.945483726654096, 0], [-93.0965357500134, 44.94522955171659, 0], [-93.09636203442074, 44.945233509572866, 0], [-93.09595832052534, 44.94524270786345, 0], [-93.0959247238373, 44.94529345073851, 0], [-93.09612806291064, 44.945504695394476, 0]]]}, "properties": {"name": "Gateway Corporate Center parcel", "county": "Ramsey"}}, {"type": "Feature", "geometry": {"type": "Polygon", "coordinates": [[[-93.09024356233977, 44.94660926043112, 0], [-93.09045660181167, 44.946832804424176, 0], [-93.0905680760233, 44.94694977418299, 0], [-93.0908925935393, 44.947290288727785, 0], [-93.09098864693738, 44.9472441164824, 0], [-93.09114866354099, 44.9471671978466, 0], [-93.09130867972176, 44.94709027799441, 0], [-93.09146869669138, 44.947013358787096, 0], [-93.09162871201204, 44.94693643935131, 0], [-93.09188473689308, 44.94681336739207, 0], [-93.09177580843642, 44.946700137867836, 0], [-93.09166688040412, 44.94658690910471, 0], [-93.09145023701788, 44.94636171138971, 0], [-93.09123166415476, 44.94613450551159, 0], [-93.09024356233977, 44.94660926043112, 0]]]}, "properties": {"name": "Boulder Tower parcel", "county": "Ramsey"}}, {"type": "Feature", "geometry": {"type": "Polygon", "coordinates": [[[-93.08721081246706, 44.94608086930391, 0], [-93.08718872828015, 44.94606599309472, 0], [-93.08712153549828, 44.94602073007804, 0], [-93.08698948960104, 44.94593177847125, 0], [-93.08696206712929, 44.94591330617975, 0], [-93.0869431081626, 44.9459005344956, 0], [-93.08693936316806, 44.945898011572545, 0], [-93.08675734073388, 44.946008632508345, 0], [-93.08669904190562, 44.946052524809836, 0], [-93.08658886574672, 44.946144396787794, 0], [-93.08642977872331, 44.946285823366004, 0], [-93.08627702477538, 44.946430728588666, 0], [-93.08638711470972, 44.9465437891454, 0], [-93.08677161080105, 44.94693865731788, 0], [-93.08693155978253, 44.946861815389624, 0], [-93.08709150676671, 44.94678497323204, 0], [-93.08733238563266, 44.94666924954905, 0], [-93.08770831776111, 44.94648973714146, 0], [-93.08771668819588, 44.946485740225455, 0], [-93.08772373641769, 44.94648237527321, 0], [-93.08777237011536, 44.946459151147074, 0], [-93.08735130887706, 44.94617551327182, 0], [-93.0872124488126, 44.94608197226039, 0], [-93.08721081246706, 44.94608086930391, 0]]]}, "properties": {"name": "Drift Tower parcel", "county": "Ramsey"}}, {"type": "Feature", "geometry": {"type": "Polygon", "coordinates": [[[-93.09755050344795, 44.95245232217621, 0], [-93.09815203019154, 44.95308677624446, 0], [-93.09869397638096, 44.95281466280864, 0], [-93.09926909945794, 44.95253859631136, 0], [-93.09920039390485, 44.95247441750943, 0], [-93.09871564596796, 44.952021605745834, 0], [-93.09820445951738, 44.9521290252437, 0], [-93.09764924191045, 44.95240913576154, 0], [-93.09755050344795, 44.95245232217621, 0]]]}, "properties": {"name": "Osprey Residences parcel", "county": "Ramsey"}}, {"type": "Feature", "geometry": {"type": "Polygon", "coordinates": [[[-93.0951122952277, 44.944996199954396, 0], [-93.09496091075017, 44.94507311995274, 0], [-93.09480266609721, 44.94515309157438, 0], [-93.09464517610165, 44.945231821483524, 0], [-93.09470762714281, 44.9452963922826, 0], [-93.09481116603064, 44.94540437571842, 0], [-93.09497061141168, 44.9453271379746, 0], [-93.09513005758578, 44.94524990001006, 0], [-93.09528950333171, 44.94517266182175, 0], [-93.09544894742855, 44.94509542340657, 0], [-93.09511954810988, 44.944756812359465, 0], [-93.09479015406755, 44.94441819960352, 0], [-93.09463167038543, 44.944494599119096, 0], [-93.09474499725401, 44.9446150751288, 0], [-93.0949580583914, 44.94483529499088, 0], [-93.09499510160498, 44.944873850991414, 0], [-93.09493178173994, 44.94490531105075, 0], [-93.09494730912961, 44.94492147217482, 0], [-93.09493464528212, 44.944927764952574, 0], [-93.09497027320116, 44.94496484801897, 0], [-93.09498293687415, 44.94495855610404, 0], [-93.094998464467, 44.94497471722145, 0], [-93.09506178437692, 44.94494325613442, 0], [-93.0951122952277, 44.944996199954396, 0]]]}, "properties": {"name": "Sterling Tower parcel", "county": "Ramsey"}}, {"type": "Feature", "geometry": {"type": "Polygon", "coordinates": [[[-93.0873860521942, 44.95105480763913, 0], [-93.08722475447895, 44.951131842786985, 0], [-93.08722397559771, 44.95113223582471, 0], [-93.08740735262369, 44.95132194038915, 0], [-93.08756824908387, 44.95124509732412, 0], [-93.0873860521942, 44.95105480763913, 0]]]}, "properties": {"name": "Harbor Tower parcel", "county": "Ramsey"}}, {"type": "Feature", "geometry": {"type": "Polygon", "coordinates": [[[-93.16774386480336, 44.95273030975602, 0], [-93.16774436273514, 44.952841893674766, 0], [-93.16823304868463, 44.95283975404876, 0], [-93.16823289756346, 44.95272834162026, 0], [-93.16774386480336, 44.95273030975602, 0]]]}, "properties": {"name": "Nicollet Commons parcel", "county": "Ramsey"}}, {"type": "Feature", "geometry": {"type": "Polygon", "coordinates": [[[-93.19127320313426, 44.969387359601946, 0], [-93.19129101333628, 44.96938740208429, 0], [-93.19129032219942, 44.96953213419834, 0], [-93.19128961184082, 44.96968110598006, 0], [-93.19171459840864, 44.9696821290208, 0], [-93.19171308409712, 44.97000002109807, 0], [-93.19160787956129, 44.970093174620516, 0], [-93.19163789598292, 44.970110192524814, 0], [-93.19181928172878, 44.97021340832432, 0], [-93.19201096000718, 44.9700436708136, 0], [-93.1920845449904, 44.9699785089855, 0], [-93.19212782302962, 44.969940185204464, 0], [-93.19216726670865, 44.969904398911815, 0], [-93.19220268870363, 44.969864627756074, 0], [-93.1922336887329, 44.969821321166016, 0], [-93.19225991648466, 44.969774968522145, 0], [-93.19228107557562, 44.96972609362648, 0], [-93.19229692690023, 44.96967524878342, 0], [-93.19230729133263, 44.969623008558514, 0], [-93.1923120517509, 44.969569963285636, 0], [-93.19231592349836, 44.9687557189718, 0], [-93.19231605402801, 44.9687282932957, 0], [-93.1922642511549, 44.96872816879654, 0], [-93.19206707756749, 44.968727696307134, 0], [-93.19188738206769, 44.968727264566276, 0], [-93.19168500028024, 44.96872677822029, 0], [-93.19153768502409, 44.96872642457949, 0], [-93.19131127725026, 44.968725880095924, 0], [-93.19129346830348, 44.96872583662747, 0], [-93.19127636052805, 44.968725796070494, 0], [-93.19127622967675, 44.968753221869584, 0], [-93.19127592991204, 44.96881602210511, 0], [-93.1912752497286, 44.96895856230043, 0], [-93.19127462538789, 44.969089343924445, 0], [-93.19127393829315, 44.96923322015841, 0], [-93.19127329359203, 44.96936821555478, 0], [-93.19127320313426, 44.969387359601946, 0]]]}, "properties": {"name": "Granite Industrial Center parcel", "county": "Ramsey"}}, {"type": "Feature", "geometry": {"type": "Polygon", "coordinates": [[[-93.14349888327972, 44.96488456006444, 0], [-93.1432689215011, 44.964883981153754, 0], [-93.14326765134066, 44.965224746059555, 0], [-93.14349761308576, 44.96522532496985, 0], [-93.14349888327972, 44.96488456006444, 0]]]}, "properties": {"name": "Riverside Square parcel", "county": "Ramsey"}}, {"type": "Feature", "geometry": {"type": "MultiPolygon", "coordinates": [[[[-93.15669723123561, 44.95259836411303, 0], [-93.15669636511956, 44.95226917844357, 0], [-93.15552860957902, 44.95228700215734, 0], [-93.15545150078833, 44.95228817903172, 0], [-93.15521667659915, 44.952311210834736, 0], [-93.1549167002336, 44.95234063360375, 0], [-93.15438322376028, 44.95237786725599, 0], [-93.15438381280212, 44.9529029734562, 0], [-93.15454449099293, 44.95292071697338, 0], [-93.15467384271683, 44.95292229351344, 0], [-93.15533583955258, 44.95291880352871, 0], [-93.1554634018767, 44.95291509327652, 0], [-93.15559062299266, 44.95290505832972, 0], [-93.15571718950815, 44.95288872340807, 0], [-93.15584278964332, 44.952866128750486, 0], [-93.15596711399891, 44.9528373300159, 0], [-93.15608985631836, 44.95280239814619, 0], [-93.15669723123561, 44.95259836411303, 0]]], [[[-93.15669723123561, 44.95259836411303, 0], [-93.15659053547651, 44.95263907410715, 0], [-93.1564859517142, 44.952684938312075, 0], [-93.15638372876305, 44.95273584761268, 0], [-93.15631495840465, 44.95277533020191, 0], [-93.15611729271744, 44.95283601190898, 0], [-93.155991031913, 44.95287478027719, 0], [-93.15586288544084, 44.952906768693516, 0], [-93.15573321709236, 44.95293188634693, 0], [-93.15560239497944, 44.95295006193163, 0], [-93.15547079048932, 44.952961243849465, 0], [-93.15533877723028, 44.95296540035639, 0], [-93.15498023477248, 44.95296939020202, 0], [-93.15483944124666, 44.952973636196106, 0], [-93.1546715464597, 44.95299212201788, 0], [-93.15453985382983, 44.95300370207401, 0], [-93.15438392760117, 44.953004367459904, 0], [-93.15438457025859, 44.95357650011307, 0], [-93.1548864677554, 44.95357526027992, 0], [-93.15502619926423, 44.95357491461419, 0], [-93.1566997909654, 44.95357076206223, 0], [-93.15669736767731, 44.95264995210105, 0], [-93.15669723123561, 44.95259836411303, 0]]]]}, "properties": {"name": "Cascade Business Park parcel", "county": "Ramsey"}}, {"type": "Feature", "geometry": {"type": "Polygon", "coordinates": [[[-93.16846494292182, 44.952950271411744, 0], [-93.16846509488673, 44.95306157841366, 0], [-93.16892864862257, 44.95305922916098, 0], [-93.16892850524931, 44.9529480912756, 0], [-93.16846494292182, 44.952950271411744, 0]]]}, "properties": {"name": "Wabasha Business Park parcel", "county": "Ramsey"}}, {"type": "Feature", "geometry": {"type": "Polygon", "coordinates": [[[-93.18413110843251, 44.96603265362556, 0], [-93.18406175154655, 44.96603272777694, 0], [-93.18406340850139, 44.966167237796924, 0], [-93.18475608117264, 44.96772959023438, 0], [-93.18483185343254, 44.96769876031755, 0], [-93.18490487902329, 44.96766189322875, 0], [-93.18497467788602, 44.967619231326495, 0], [-93.18504079117383, 44.967571055063495, 0], [-93.18510278426825, 44.96751768114302, 0], [-93.1851602496363, 44.967459460436935, 0], [-93.18521280950958, 44.96739677567912, 0], [-93.18526011836765, 44.96733003894942, 0], [-93.18530186520942, 44.967259688964745, 0], [-93.18533777559766, 44.96718618819496, 0], [-93.18536761346301, 44.9671100198227, 0], [-93.18539118265603, 44.96703168456702, 0], [-93.18555826677267, 44.966088741669886, 0], [-93.18555852202587, 44.96603110606044, 0], [-93.18413110843251, 44.96603265362556, 0]]]}, "properties": {"name": "Monarch Development Site parcel", "county": "Ramsey"}}, {"type": "Feature", "geometry": {"type": "Polygon", "coordinates": [[[-93.34264266445862, 44.85120944604206], [-93.34263853115839, 44.85158678498713], [-93.34294697780686, 44.8515859122786], [-93.34295110823406, 44.85120885509872], [-93.34295112287666, 44.85120748402538], [-93.34264266445862, 44.85120944604206]]]}, "properties": {"name": "Mill Commerce Park parcel", "county": "Hennepin"}}, {"type": "Feature", "geometry": {"type": "Polygon", "coordinates": [[[-93.31758711683203, 44.858788362120684], [-93.31758753198497, 44.85878836366687], [-93.31759168293854, 44.85845925867737], [-93.31759223706824, 44.85841523931563], [-93.31722961787119, 44.85841376975424], [-93.31722445523167, 44.85878697278015], [-93.31758711683203, 44.858788362120684]]]}, "properties": {"name": "Windrose Executive Park parcel", "county": "Hennepin"}}, {"type": "Feature", "geometry": {"type": "Polygon", "coordinates": [[[-93.32710581158055, 44.88340552648696], [-93.32739352158035, 44.88340885293845], [-93.32768105387873, 44.88341678195489], [-93.32784711053003, 44.88342217115395], [-93.32810854261267, 44.88345043146968], [-93.32810901239489, 44.88345043372089], [-93.32842004019801, 44.8834515327858], [-93.32842013488701, 44.88342544529284], [-93.32845943561541, 44.883423382410975], [-93.32849779735729, 44.88341696699464], [-93.32853427007724, 44.88340635841455], [-93.32856795623486, 44.88339181761525], [-93.3285980209052, 44.88337370528558], [-93.32862372208074, 44.88335246646739], [-93.32864442712224, 44.88332862870757], [-93.32865962148327, 44.88330277772657], [-93.32866893275252, 44.88327555464857], [-93.32867212923799, 44.88324762989892], [-93.3286740665921, 44.88270279935066], [-93.32872153059637, 44.88237374982009], [-93.32872327414073, 44.88188190349131], [-93.32872217444454, 44.881567825571715], [-93.3287166407587, 44.881253772100024], [-93.32871534817444, 44.88120132679444], [-93.32870977040169, 44.88088463040786], [-93.32870866211087, 44.88056790943652], [-93.3287107668598, 44.87997336485615], [-93.32405968986029, 44.8799708179138], [-93.32384380046732, 44.87997110262536], [-93.32188189786622, 44.87997013329015], [-93.32181669182226, 44.88003338498762], [-93.32181545092381, 44.88003200935993], [-93.32181420747814, 44.88003063103876], [-93.32179000360462, 44.88000675270668], [-93.32178856069874, 44.880005480271976], [-93.32178736845975, 44.88000442948332], [-93.32178711525059, 44.88000420604406], [-93.32178638243265, 44.88000357525997], [-93.32178565088083, 44.88000294447235], [-93.32178491932403, 44.88000231278452], [-93.32178428065129, 44.88000176275424], [-93.32178418650614, 44.88000168200046], [-93.32178347665418, 44.8800010826591], [-93.32177883490758, 44.87999721312428], [-93.32177611304793, 44.87999500627229], [-93.32177221893544, 44.87999192681706], [-93.32176913777333, 44.87998954363555], [-93.32176777084433, 44.87998849964036], [-93.3217660263247, 44.87998717854357], [-93.32176507914005, 44.8799864781468], [-93.32176477528088, 44.87998625394998], [-93.32176203169061, 44.879984237103585], [-93.32175844928456, 44.87998165368654], [-93.3217564738683, 44.87998025042063], [-93.3217548507202, 44.87997912432762], [-93.32175322631099, 44.8799779991384], [-93.3217515880798, 44.87997689289252], [-93.32174994858255, 44.879975786650185], [-93.32174735858935, 44.87997406734082], [-93.32174616280244, 44.87997328842567], [-93.32174474589638, 44.87997236429914], [-93.32174451334696, 44.8799722128185], [-93.32174316132955, 44.879971345222465], [-93.32174211682408, 44.879970675706915], [-93.32174112441555, 44.87997003935241], [-93.32146467905599, 44.879969892409775], [-93.32145736799328, 44.88211064406191], [-93.32145626927172, 44.882168458731826], [-93.32164759596031, 44.88216855918792], [-93.32166222762658, 44.88221346103289], [-93.32168332350714, 44.882257043862474], [-93.32171065688253, 44.88229883840135], [-93.32174393276233, 44.882338394470345], [-93.32178279425042, 44.88237528726983], [-93.32220681955722, 44.88273707677392], [-93.32226363233708, 44.88276529113444], [-93.32232463465456, 44.8827886703101], [-93.32238901565385, 44.88280690330962], [-93.32245592054538, 44.88281974858371], [-93.32247298536679, 44.88282339216671], [-93.322488926918, 44.88282904999109], [-93.3225032783065, 44.88283655593648], [-93.32251562173383, 44.88284569243198], [-93.32252559355523, 44.88285618954163], [-93.32253290210203, 44.88286774201787], [-93.32253733528886, 44.88288001108056], [-93.3225387619554, 44.88289263791612], [-93.32253514341795, 44.88336201018591], [-93.3224501340656, 44.8834218145119], [-93.32283774216809, 44.88342256490015], [-93.32313519482635, 44.883423716732075], [-93.32313543151606, 44.883391354369294], [-93.32352015835329, 44.8833927092342], [-93.32387848517085, 44.883415181012474], [-93.32406795367892, 44.88342706284719], [-93.32460855500025, 44.88342899877014], [-93.3257566600355, 44.88343310332803], [-93.32575635062037, 44.88340071281066], [-93.32710581158055, 44.88340552648696]], [[-93.32283777584182, 44.883417944921035], [-93.32283903903127, 44.883239677921466], [-93.32282360477784, 44.883239625228015], [-93.32282543742436, 44.88298181934605], [-93.32310191840988, 44.88298281269286], [-93.32310183800267, 44.88299378379524], [-93.32366633169018, 44.882995799714884], [-93.32366592529084, 44.883053394583804], [-93.3237585065466, 44.88305372630279], [-93.32375730768216, 44.883223766105274], [-93.32366472237528, 44.88322343799768], [-93.32366431217542, 44.883281032875054], [-93.32314352396386, 44.88327916785337], [-93.32314393468336, 44.883221572976375], [-93.32310022644147, 44.88322141847572], [-93.32310008695787, 44.88324061137413], [-93.3230049248115, 44.88324027291778], [-93.32300365835597, 44.88341854352917], [-93.32283777584182, 44.883417944921035]], [[-93.3248637250027, 44.88190475914529], [-93.32489517803437, 44.8819271821586], [-93.32489546534424, 44.88192738658944], [-93.32489549204023, 44.881927405417926], [-93.32470585416462, 44.8820617251737], [-93.32462583538752, 44.88211840221202], [-93.32425538073852, 44.88238078869402], [-93.32420773354208, 44.882346739339134], [-93.32405589818913, 44.882454299027096], [-93.3239197881961, 44.88235713375202], [-93.32388698841453, 44.88238035770896], [-93.32385765460668, 44.882359418259995], [-93.3234214968174, 44.882048051354204], [-93.3235472323278, 44.88195902528275], [-93.323587067706, 44.88184670916445], [-93.32311133140128, 44.88150720994445], [-93.32371302362243, 44.88108223826733], [-93.32376243302656, 44.88111760075031], [-93.32442560228435, 44.88159242580972], [-93.3244263551892, 44.88159189074566], [-93.32466397489503, 44.88176119161559], [-93.32466738884213, 44.88175876934352], [-93.32486800536411, 44.881901722258924], [-93.3248637250027, 44.88190475914529]], [[-93.3254304158021, 44.88170318897496], [-93.32677998243206, 44.88075017120114], [-93.3275237147381, 44.88128252873117], [-93.32617413663047, 44.88223555253716], [-93.3254304158021, 44.88170318897496]]]}, "properties": {"name": "Ironworks Square parcel", "county": "Hennepin"}}, {"type": "Feature", "geometry": {"type": "Polygon", "coordinates": [[[-93.27460367578806, 44.86203662939303], [-93.27460367167599, 44.86203709571405], [-93.2746003785222, 44.86244802548356], [-93.27563641187425, 44.862448043996885], [-93.27563946184338, 44.86206541753221], [-93.27563969164002, 44.86203664881921], [-93.27460367578806, 44.86203662939303]]]}, "properties": {"name": "Keystone Logistics Center parcel", "county": "Hennepin"}}, {"type": "Feature", "geometry": {"type": "Polygon", "coordinates": [[[-93.37464255932069, 44.861521118197565], [-93.37464249614659, 44.86155802270384], [-93.37464192214135, 44.861893227597726], [-93.37506530973619, 44.86189280834345], [-93.37506611728055, 44.861892807491756], [-93.37591468676958, 44.86180027600752], [-93.37608832925245, 44.86176983609512], [-93.37625946232009, 44.861732903736446], [-93.37642760813435, 44.86168958134176], [-93.3765922940478, 44.861639990211096], [-93.37675305766132, 44.86158426961764], [-93.37690945061608, 44.861522575894334], [-93.37713453683615, 44.86143691377195], [-93.3764505887254, 44.86092289358133], [-93.37635192924047, 44.86084874488338], [-93.37633826476603, 44.860864534668615], [-93.3763065753919, 44.86087902092094], [-93.37626809861933, 44.86088545730144], [-93.37621830347858, 44.8608967218979], [-93.37618986221665, 44.860916307036426], [-93.37617714469108, 44.860951377182694], [-93.37617561071544, 44.860978603828556], [-93.37617714276423, 44.860988790113026], [-93.37617798337119, 44.86100222664974], [-93.3761764758539, 44.86101563401207], [-93.37617264164521, 44.86102880508], [-93.37617100996634, 44.86103305856769], [-93.37615722616066, 44.86104394885516], [-93.37611763947699, 44.8610504257493], [-93.37608372245928, 44.861049389671805], [-93.37605463054588, 44.861030873530645], [-93.37601271953855, 44.86100714233503], [-93.37598878756704, 44.86099710721495], [-93.37596122445775, 44.86099274909487], [-93.37591667810254, 44.86099077842775], [-93.37591651706063, 44.86099831915639], [-93.37591638633995, 44.861004489658335], [-93.37591612425993, 44.86101673254093], [-93.3759156207796, 44.861291423910245], [-93.37553072468036, 44.8612910265891], [-93.3754960178812, 44.86129099037193], [-93.37538890062983, 44.861405672478575], [-93.37536733448599, 44.86142527892243], [-93.37536381037448, 44.86142913082114], [-93.37536127598281, 44.86143335845713], [-93.37535980896072, 44.861437834644995], [-93.37535692760834, 44.86145216923099], [-93.37535406826134, 44.861480604706685], [-93.37535267018383, 44.86149004265098], [-93.37535189106461, 44.86149305372901], [-93.37535046943157, 44.861495944489604], [-93.37534844153419, 44.86149864459673], [-93.37534585380033, 44.86150109178315], [-93.37534276786988, 44.86150322733214], [-93.3753392580867, 44.861504999687114], [-93.37532829801336, 44.86150967541372], [-93.37532543912735, 44.861510715555056], [-93.37532241005273, 44.8615114717878], [-93.37531926513347, 44.86151193133033], [-93.3753160625341, 44.86151208498941], [-93.37529694599752, 44.861512083896166], [-93.37528070239021, 44.86151086617143], [-93.37527551341768, 44.861510175653784], [-93.37527054471111, 44.86150890467387], [-93.37526592559595, 44.86150708701496], [-93.37526177282233, 44.86150476910462], [-93.37524707434522, 44.86149511938868], [-93.37522294979313, 44.861471620231306], [-93.37518625802096, 44.86145518583016], [-93.37515364317615, 44.86143971835854], [-93.3751318976078, 44.86144164963259], [-93.37512102272623, 44.861458080962635], [-93.37510878837374, 44.86147547818609], [-93.37510199007225, 44.86149867564097], [-93.37508703799963, 44.86151897327763], [-93.37506672709831, 44.8615350349975], [-93.37506489232297, 44.861536484967495], [-93.37501907928241, 44.8615576311212], [-93.37501092370896, 44.86156439690847], [-93.37500140818076, 44.86158082826415], [-93.37498509849796, 44.86159049250877], [-93.37496878941037, 44.86158952431415], [-93.37495384172166, 44.861575991852945], [-93.37494704774534, 44.8615663251485], [-93.37493669427799, 44.86155798984426], [-93.37488683182765, 44.861529170222816], [-93.37482449999449, 44.861515865294656], [-93.37477151975773, 44.861491478609906], [-93.37473412142347, 44.8614759591998], [-93.37469048942167, 44.86146708941012], [-93.37465932184851, 44.861473737123404], [-93.3746499682794, 44.86149368595759], [-93.37464684813557, 44.86151806860449], [-93.37464255932069, 44.861521118197565]]]}, "properties": {"name": "Northstar Square parcel", "county": "Hennepin"}}, {"type": "Feature", "geometry": {"type": "Polygon", "coordinates": [[[-93.33927039419189, 44.85399014039493], [-93.3392668925441, 44.854222969116755], [-93.3401695230655, 44.85416525572425], [-93.34016768077026, 44.8541487692578], [-93.34014785623843, 44.853946386866525], [-93.33927039419189, 44.85399014039493]]]}, "properties": {"name": "Kestrel Industrial Center parcel", "county": "Hennepin"}}, {"type": "Feature", "geometry": {"type": "Polygon", "coordinates": [[[-93.31787228679093, 44.862523349489344], [-93.3181755901159, 44.863006707749925], [-93.31824971897561, 44.862984866348825], [-93.31832565893582, 44.86296643976611], [-93.31840310030489, 44.862951502679174], [-93.31829375549378, 44.862631361734465], [-93.31826500447765, 44.86252561804485], [-93.31799371938978, 44.86252405118322], [-93.31787228679093, 44.862523349489344]]]}, "properties": {"name": "Juniper Executive Park parcel", "county": "Hennepin"}}, {"type": "Feature", "geometry": {"type": "MultiPolygon", "coordinates": [[[[-93.32188229581465, 44.87996974687791], [-93.3218822731448, 44.87996976854685], [-93.32188189786622, 44.87997013329015], [-93.32384380046732, 44.87997110262536], [-93.32405968986029, 44.8799708179138], [-93.3287107668598, 44.87997336485615], [-93.32871076993044, 44.87997301466493], [-93.3287107709249, 44.879972966950874], [-93.32871077077112, 44.87997293994499], [-93.32871099462666, 44.879909742634524], [-93.32871099420123, 44.879909667918184], [-93.32866491483595, 44.879909585386606], [-93.32866470845221, 44.87990958508035], [-93.32866747904035, 44.87912789256895], [-93.32867411894516, 44.879081912241475], [-93.32867413234959, 44.87908182038129], [-93.32867409310026, 44.879081820494235], [-93.32852298061897, 44.879081601732445], [-93.32852298204386, 44.879081629634896], [-93.32852297977803, 44.879081676452415], [-93.32852278597957, 44.8791363972901], [-93.32852224815322, 44.87928730135416], [-93.32823314891598, 44.879286780494674], [-93.32823294253448, 44.87928678018759], [-93.32823367603108, 44.879081080564724], [-93.32807715385569, 44.879176081369884], [-93.32807085649809, 44.87918060412044], [-93.32806570506926, 44.879185809540346], [-93.32806184561464, 44.879191552276005], [-93.32805938230602, 44.879197670890484], [-93.32805838635052, 44.8792039959394], [-93.32805888459526, 44.87921035000403], [-93.32806086464316, 44.879216556678415], [-93.32806426853753, 44.879222443288256], [-93.32793609084426, 44.87907764054946], [-93.3278878535699, 44.879035009083665], [-93.32769489004654, 44.878886352803505], [-93.32749815103261, 44.878743785251324], [-93.32743021105502, 44.878698262794295], [-93.32735746822853, 44.8786566600832], [-93.3272803696696, 44.87861923238807], [-93.32719938893032, 44.87858620879767], [-93.32711502093953, 44.87855779313461], [-93.32702778450462, 44.87853415854685], [-93.32703679950572, 44.87853554336406], [-93.32704601106539, 44.87853586536748], [-93.32705517350942, 44.87853511625864], [-93.32706404259284, 44.87853331654153], [-93.32707238055427, 44.878530513708256], [-93.32707996624981, 44.87852678310988], [-93.32708659512755, 44.87852222345547], [-93.32709209062756, 44.87851695767972], [-93.32709630793947, 44.878511125730405], [-93.32714777554885, 44.87842286285864], [-93.32714766863329, 44.878312832051236], [-93.32337910191842, 44.87831459818199], [-93.32338214443024, 44.878316188343426], [-93.32338601800201, 44.878318318079145], [-93.32339046915831, 44.878320942196034], [-93.3233989630987, 44.8783265201631], [-93.32340099832193, 44.87832797994499], [-93.3234031012583, 44.87832954846077], [-93.32340495525399, 44.878330977248396], [-93.32340514221173, 44.8783311270544], [-93.32340532407983, 44.87833127237373], [-93.32341510311265, 44.87833978589266], [-93.32341568867712, 44.87834034866734], [-93.32341589234623, 44.87834054343657], [-93.32341672502535, 44.87834137197419], [-93.32341754497806, 44.87834218884513], [-93.32341908588616, 44.87834377965711], [-93.3234191572059, 44.8783438541727], [-93.32342043606855, 44.878345226075034], [-93.32342225664651, 44.87834724369566], [-93.3234237018059, 44.878348919398675], [-93.32342374385422, 44.87834896699084], [-93.32342518684962, 44.87835070841538], [-93.32342564332829, 44.87835128145797], [-93.32342688406189, 44.87835285331522], [-93.32342707155934, 44.878353099442336], [-93.32342730880755, 44.87835341204421], [-93.32342732794521, 44.87835343809614], [-93.32342738524216, 44.87835349554748], [-93.32342743243557, 44.87835355752845], [-93.32342746825428, 44.87835362314246], [-93.32342758942069, 44.87835378123665], [-93.32342760728217, 44.87835380549182], [-93.32342762641476, 44.87835383064353], [-93.32342766977459, 44.878353886333905], [-93.32342769783538, 44.878353923163125], [-93.32342772845357, 44.87835396448619], [-93.32342776672384, 44.87835401568989], [-93.32342779222724, 44.87835404802526], [-93.3234278381495, 44.87835410910967], [-93.32342808942062, 44.878354438775865], [-93.32342845560832, 44.878354940957315], [-93.32342925687223, 44.87835603784702], [-93.32342951207275, 44.878356390907605], [-93.32343018472501, 44.878357356730554], [-93.32343409553263, 44.87836342028569], [-93.32343430767092, 44.87836377076759], [-93.323435063305, 44.87836508473757], [-93.32343539323507, 44.87836566894098], [-93.32343565922001, 44.878366138998565], [-93.32343576919331, 44.878366333132924], [-93.3234364510713, 44.87836758969819], [-93.32344095994635, 44.87837735143065], [-93.32344117841997, 44.87837792874806], [-93.32344134032307, 44.87837835228935], [-93.32344241800749, 44.87838132983923], [-93.32344265479149, 44.87838201152931], [-93.32344563663513, 44.878390173408505], [-93.32344589619878, 44.87839085323367], [-93.32345579048084, 44.87841270306352], [-93.32347783059262, 44.87844788213795], [-93.32350632192846, 44.87848063576693], [-93.32354074838192, 44.87851036856725], [-93.32358048399966, 44.87853654037954], [-93.32359140402467, 44.87854259757258], [-93.3236210107008, 44.87855701609539], [-93.32362185604103, 44.87855739178902], [-93.32367226923576, 44.878576170477814], [-93.3236797101703, 44.87857842152397], [-93.32368355528787, 44.878579535891014], [-93.32368393952622, 44.87857964372765], [-93.32368784657676, 44.8785807390146], [-93.32369636888639, 44.87858300950006], [-93.32369648680508, 44.87858303977301], [-93.32369685704073, 44.87858313414608], [-93.32370089534196, 44.87858415344279], [-93.32370117807046, 44.87858422195777], [-93.32370519841936, 44.87858520079563], [-93.32370541013533, 44.878585249707186], [-93.32370553437949, 44.87858527906202], [-93.32370980426593, 44.878586277897256], [-93.32371225349179, 44.87858682818623], [-93.32371418042406, 44.878587262027786], [-93.32371629106675, 44.8785877178539], [-93.32371839157054, 44.878588171908284], [-93.32372282054165, 44.8785890910735], [-93.32372726323295, 44.87858997329092], [-93.32373172091569, 44.87859081945723], [-93.32373620119145, 44.87859163045105], [-93.32374067491475, 44.87859240185394], [-93.32374516996494, 44.878593138087936], [-93.32374967747434, 44.878593838277965], [-93.32375420503948, 44.87859450240244], [-93.3237587235199, 44.87859512694324], [-93.32375929124179, 44.878595216255185], [-93.32375985400024, 44.87859532358547], [-93.32376041675869, 44.87859543091574], [-93.32376088458501, 44.878595543016246], [-93.32376134741766, 44.87859566773381], [-93.32376145395163, 44.878595699839444], [-93.32376342031634, 44.87859639192919], [-93.3237635865589, 44.87859645987406], [-93.32376431774479, 44.8785967989815], [-93.32376452092632, 44.87859690643092], [-93.32376455521194, 44.878596924337984], [-93.32376460982076, 44.87859695389017], [-93.32376646355024, 44.87859810630753], [-93.32376801457735, 44.87859946663175], [-93.32376921835636, 44.8786009935794], [-93.32377004046029, 44.87860264403796], [-93.32377045656062, 44.878604369464895], [-93.32377045497975, 44.878606119481454], [-93.32377003417386, 44.878607844580365], [-93.32376920905335, 44.87860949430749], [-93.32376882348098, 44.878610051731556], [-93.32376872037268, 44.87861017895376], [-93.32376869523246, 44.87861021143264], [-93.32376865374403, 44.87861026376257], [-93.32376862607666, 44.87861029714886], [-93.32376859216458, 44.87861034585646], [-93.3237685506408, 44.878610391885005], [-93.32376839096194, 44.87861059128452], [-93.32376836327943, 44.87861062197022], [-93.32376791401842, 44.87861111115874], [-93.32376739390637, 44.878611609550255], [-93.32376683315294, 44.878612085551666], [-93.32376623173792, 44.87861253556223], [-93.3219978832218, 44.879860003000445], [-93.32198206471095, 44.87987307186326], [-93.32188229581465, 44.87996974687791]]], [[[-93.32146468355877, 44.879968654605946], [-93.32146467905599, 44.879969892409775], [-93.32174112441555, 44.87997003935241], [-93.32174101767946, 44.879969971237], [-93.32173991475153, 44.879969269478394], [-93.32173984867707, 44.87996922735459], [-93.32173979658013, 44.87996919419352], [-93.32173930737474, 44.879968882298016], [-93.3217363137098, 44.879966976881555], [-93.32173271703864, 44.87996478689644], [-93.32172908507168, 44.87996262491723], [-93.32172542034618, 44.879960491836954], [-93.32172357097357, 44.87995944019817], [-93.32172172160107, 44.8799583885594], [-93.32171799009738, 44.879956314180724], [-93.32171422711131, 44.879954270497855], [-93.32171042502102, 44.87995225303114], [-93.32170659017721, 44.87995026536359], [-93.3217027302017, 44.8799483119747], [-93.32168298091375, 44.879939011703726], [-93.32163305504122, 44.87992007773283], [-93.32163284448289, 44.87992000990975], [-93.3215846246631, 44.879901623842855], [-93.32156568339707, 44.879892584138105], [-93.32155109203663, 44.879884804182055], [-93.32154752163774, 44.8798827824567], [-93.32154575471952, 44.87988175758926], [-93.32154405511166, 44.879880769440916], [-93.32154223726269, 44.87987969340474], [-93.32154048672405, 44.87987865408766], [-93.32154042320214, 44.87987861555741], [-93.32153944114704, 44.87987801878128], [-93.32153736773382, 44.87987675081925], [-93.32153660416955, 44.879876282158236], [-93.32153622301796, 44.87987604737586], [-93.32153584186636, 44.87987581259347], [-93.32153551151528, 44.87987560557463], [-93.32153532220062, 44.879875487279705], [-93.32153478728118, 44.8798751512063], [-93.3215343197121, 44.87987485905366], [-93.32153425110062, 44.87987481603668], [-93.32153342900375, 44.879874295328186], [-93.32153332226805, 44.879874227212596], [-93.3215327441399, 44.87987386245407], [-93.3215326056458, 44.879873775523436], [-93.32153206434057, 44.87987342956568], [-93.32153087373341, 44.87987267043832], [-93.32153038198769, 44.87987235674867], [-93.3215302167946, 44.87987225008856], [-93.32153018248886, 44.87987222858004], [-93.32153014944421, 44.879872206167775], [-93.321527726137, 44.87987063221839], [-93.32152634477873, 44.879869724192886], [-93.32152623549078, 44.87986965248363], [-93.32152472697342, 44.879868646693005], [-93.32152434191326, 44.87986839211693], [-93.32152286634033, 44.87986739073459], [-93.3215224431159, 44.87986710385832], [-93.32152155596049, 44.87986649601234], [-93.3215213729414, 44.8798663713982], [-93.32152066753896, 44.87986588816999], [-93.32151842539868, 44.87986433351498], [-93.32151736785046, 44.879863594717776], [-93.32151722421665, 44.879863494298434], [-93.32151699923494, 44.879863337394745], [-93.32151539496633, 44.8798621896401], [-93.32151377157052, 44.879861017633594], [-93.32151373470744, 44.879860991631226], [-93.32151299738128, 44.879860459881364], [-93.32151198792093, 44.879859716447655], [-93.32151107890571, 44.879859048349], [-93.32151097846562, 44.87985897391413], [-93.32151031100204, 44.879858482477125], [-93.32150986472678, 44.879858148854694], [-93.32150947057826, 44.87985785379464], [-93.32150826906064, 44.87985695426476], [-93.32150821311043, 44.8798569112121], [-93.32150593959616, 44.879855179303505], [-93.32150527456966, 44.879854670755584], [-93.32150479898304, 44.8798543030076], [-93.32150432339644, 44.879853935259604], [-93.3215042318393, 44.879853864400616], [-93.32150294997436, 44.87985286067227], [-93.32150264349443, 44.87985262027834], [-93.32150167062167, 44.87985185333599], [-93.32150133867883, 44.87985158780777], [-93.3215000401739, 44.87985055171862], [-93.32149932666876, 44.8798499775917], [-93.32149837274287, 44.87984920249412], [-93.32149829388213, 44.879849137900884], [-93.32149770753604, 44.87984866153905], [-93.3214974658742, 44.879848465072975], [-93.3214968273513, 44.87984794114677], [-93.32149618755723, 44.87984741632398], [-93.32149560750672, 44.8798469336429], [-93.32149532765561, 44.87984670037564], [-93.32149529331478, 44.879846672565776], [-93.32149492060033, 44.879846361241476], [-93.32149240181504, 44.87984423933115], [-93.32148950615118, 44.87984174039277], [-93.32148383724746, 44.87983667195458], [-93.32147300436931, 44.87982625999165], [-93.32146533108991, 44.8798182228949], [-93.32146519733973, 44.879818078337244], [-93.32146468355877, 44.879968654605946]]]]}, "properties": {"name": "Aspen Shopping Center parcel", "county": "Hennepin"}}, {"type": "Feature", "geometry": {"type": "Polygon", "coordinates": [[[-93.43257399682189, 44.86334954458314], [-93.4334569224088, 44.863424363393065], [-93.43345879571115, 44.86238409285215], [-93.43058318764807, 44.862418592585605], [-93.43033944559724, 44.86242450299501], [-93.43009613400362, 44.862436383285754], [-93.42985354255028, 44.8624542197672], [-93.42985353044227, 44.86245429363039], [-93.4298377136891, 44.86255009456927], [-93.4300201602342, 44.86256831764093], [-93.43020126069536, 44.86259239688553], [-93.43038064135928, 44.86262228330572], [-93.43055793599758, 44.862657913474756], [-93.43073278085666, 44.862699216757036], [-93.43090481839425, 44.86274610719197], [-93.43107369352198, 44.86279848890919], [-93.43123906118588, 44.862856254299665], [-93.43257399682189, 44.86334954458314]]]}, "properties": {"name": "Vantage Development Site parcel", "county": "Hennepin"}}, {"type": "Feature", "geometry": {"type": "Polygon", "coordinates": [[[-93.4332219533458, 44.96916297538532], [-93.43322998774366, 44.97030722924086], [-93.43326874475653, 44.97033404852623], [-93.43355069731983, 44.970333438504944], [-93.43383258378144, 44.970337854741274], [-93.43404023885189, 44.97034296111684], [-93.43662772372758, 44.9704065576144], [-93.43892138090494, 44.970397896848986], [-93.43893032926331, 44.970214226673946], [-93.43844389631867, 44.97031756994786], [-93.43777013756183, 44.97032006548524], [-93.43702576718931, 44.9701100809066], [-93.43676038004513, 44.970165158418325], [-93.4365393829117, 44.96962971249964], [-93.4343481056841, 44.97009518243248], [-93.43403667118547, 44.96985900509131], [-93.43377449555732, 44.969660178943954], [-93.4336858542177, 44.969161274094844], [-93.4332219533458, 44.96916297538532]]]}, "properties": {"name": "Lyndale Flats parcel", "county": "Hennepin"}}, {"type": "Feature", "geometry": {"type": "Polygon", "coordinates": [[[-93.4741125982603, 44.908270548381225], [-93.47415325714982, 44.908500823619725], [-93.47493182040377, 44.90821667434535], [-93.47480822059225, 44.90795110322934], [-93.47405908827098, 44.908162778954996], [-93.47408411391297, 44.908196761417344], [-93.47410207251929, 44.90823293010877], [-93.4741125982603, 44.908270548381225]]]}, "properties": {"name": "Birchwood Lofts parcel", "county": "Hennepin"}}, {"type": "Feature", "geometry": {"type": "Polygon", "coordinates": [[[-93.42428856586639, 44.90968404648356], [-93.42532103376718, 44.91067599602498], [-93.42633448170089, 44.91014274612566], [-93.4262954466079, 44.91010527129216], [-93.42605241453565, 44.909871945259134], [-93.42582396605086, 44.90965261745535], [-93.42564082551975, 44.90947678847534], [-93.42562589679702, 44.909443209677875], [-93.42557353761394, 44.90932544707001], [-93.42552506374086, 44.90921641997211], [-93.42545398666017, 44.90905655234294], [-93.42538511790144, 44.908901654585044], [-93.42534064444344, 44.90880162267345], [-93.42532503447434, 44.90870791523153], [-93.42529164633602, 44.908507494115526], [-93.42534951025411, 44.90830810506914], [-93.42544785669854, 44.908157432033825], [-93.42552697641472, 44.90803621601723], [-93.42561757586436, 44.90789741032012], [-93.42568108879931, 44.907800104246995], [-93.42573904626983, 44.90771130780221], [-93.42574779937321, 44.90769789719012], [-93.42566598066352, 44.90769805004277], [-93.42566446691767, 44.907575334918846], [-93.42566277924384, 44.90743849258602], [-93.42568901222037, 44.907437953705376], [-93.42569111425772, 44.90730072095698], [-93.42573161999778, 44.90729988940931], [-93.42573161057679, 44.90729964278762], [-93.42572603847512, 44.90716256917285], [-93.42572046640234, 44.90702549555445], [-93.42571489435846, 44.90688842193237], [-93.4257093223435, 44.90675134830666], [-93.42570451974052, 44.90663321757638], [-93.42569704250748, 44.9064492754395], [-93.42557904511176, 44.906450784662375], [-93.42556912927189, 44.90645080090836], [-93.42216883583711, 44.9064570845677], [-93.42217192287052, 44.906532885933196], [-93.42217969437455, 44.90660523748928], [-93.42219704129631, 44.906676744358734], [-93.42222380699423, 44.90674676886921], [-93.42225975384, 44.90681468534836], [-93.42230455947002, 44.906879887339606], [-93.42235782695728, 44.906941792966116], [-93.42241907724981, 44.906999850360485], [-93.42248776564352, 44.9070535385046], [-93.42256327808063, 44.90710238074681], [-93.42264493998348, 44.90714594026901], [-93.42273202264111, 44.907183827265015], [-93.42282374958263, 44.90721570431889], [-93.42320684266441, 44.907333242336044], [-93.42333042981026, 44.907374913096504], [-93.42344955368083, 44.90742270097751], [-93.42356361336729, 44.907476366065715], [-93.42367203687012, 44.90753563863556], [-93.42377427983823, 44.90760022005359], [-93.42386982813544, 44.907669787269505], [-93.4239582003537, 44.90774399010606], [-93.42403895417335, 44.90782245483563], [-93.42411168259618, 44.90790478869479], [-93.42417602025277, 44.907990576259905], [-93.42423164473625, 44.9080793884434], [-93.4242782752963, 44.908170777097595], [-93.4243156779731, 44.90826428399686], [-93.42434366431186, 44.90835943814182], [-93.42436209521678, 44.90845576294644], [-93.42437087713236, 44.90855277355117], [-93.4243811939156, 44.908807406526186], [-93.42388334298626, 44.90881040501676], [-93.42428856586639, 44.90968404648356]]]}, "properties": {"name": "Anchor Financial Center parcel", "county": "Hennepin"}}, {"type": "Feature", "geometry": {"type": "Polygon", "coordinates": [[[-93.4334569224088, 44.863424363393065], [-93.43479426148689, 44.86353767502445], [-93.4372741333045, 44.86320648280741], [-93.43978476907245, 44.862814261964814], [-93.43978448960004, 44.86271886552106], [-93.43978312696352, 44.86225242555641], [-93.43941042924746, 44.86227692004856], [-93.43896647666666, 44.86230027569313], [-93.43852195958515, 44.862317346481866], [-93.43852373302956, 44.862391725293335], [-93.43694286054314, 44.86241077112798], [-93.43694220883394, 44.862383348588], [-93.43570835645464, 44.86239819903444], [-93.4357073791341, 44.86235706476264], [-93.43345879571115, 44.86238409285215], [-93.4334569224088, 44.863424363393065]]]}, "properties": {"name": "Foundry Executive Park parcel", "county": "Hennepin"}}, {"type": "Feature", "geometry": {"type": "Polygon", "coordinates": [[[-93.44519413087245, 44.969857304595436], [-93.44518465687766, 44.96990584867121], [-93.44518106244121, 44.96995479021896], [-93.44518337397267, 44.97000377085766], [-93.44519157475956, 44.970052431473285], [-93.44563703330239, 44.96997714887561], [-93.44567009733431, 44.96994965834746], [-93.44614985822398, 44.9688328543663], [-93.44603160332585, 44.96880725465643], [-93.44611048747329, 44.968623622176125], [-93.44640335303032, 44.96868701926844], [-93.44669071000378, 44.96801806865449], [-93.44693816161062, 44.9677204169112], [-93.4474439568259, 44.96787059680302], [-93.44744823431806, 44.967574593181844], [-93.44737331225129, 44.96757453742317], [-93.44633343454281, 44.967573755053614], [-93.44440754648267, 44.96757224380962], [-93.4444075467746, 44.967572281616754], [-93.44440716864241, 44.96776422508184], [-93.44430942304261, 44.96788402384967], [-93.4444365250717, 44.96872835140874], [-93.44444759804361, 44.968776125018884], [-93.44446620322006, 44.968822705357816], [-93.44449210393881, 44.96886749471164], [-93.44452496608143, 44.96890992004974], [-93.44456437079442, 44.9689494383771], [-93.44460981326941, 44.96898554304056], [-93.4446607104137, 44.96901777180127], [-93.44465449923645, 44.969023845313096], [-93.4447517392664, 44.96907394165018], [-93.44482305982895, 44.96911393062146], [-93.44488955952552, 44.96915790639932], [-93.44495079860526, 44.9692055772409], [-93.44500637010157, 44.969256627870806], [-93.44505590489739, 44.969310718560806], [-93.44509907684659, 44.96936749141094], [-93.44514300248773, 44.96940545527818], [-93.44518038676047, 44.969446798763705], [-93.4452107205681, 44.96949095583385], [-93.44523358836823, 44.96953732408168], [-93.44524867836002, 44.9695852700879], [-93.44525578382327, 44.969634138417476], [-93.44525480700018, 44.96968326150645], [-93.4452457629639, 44.96973196774838], [-93.44522877463108, 44.96977959231646], [-93.44520996075762, 44.96981811309891], [-93.44519413087245, 44.969857304595436]]]}, "properties": {"name": "Marquette Development Site parcel", "county": "Hennepin"}}, {"type": "Feature", "geometry": {"type": "Polygon", "coordinates": [[[-93.43833190159745, 45.105334693491514], [-93.43809929874004, 45.105413567363854], [-93.43786941990598, 45.105496349684586], [-93.43764239689588, 45.10558299315581], [-93.43740199557597, 45.105680253680866], [-93.4371651920114, 45.10578184417671], [-93.43693214074041, 45.10588769836143], [-93.43670299627757, 45.105997746353346], [-93.43647790803657, 45.10611191559061], [-93.43625702287922, 45.10623013172153], [-93.43754475138303, 45.107405615255196], [-93.43832654966016, 45.10740415668121], [-93.4402456327023, 45.10740055133191], [-93.44024396260396, 45.10733244776049], [-93.44023532663016, 45.10725526125962], [-93.440217543108, 45.10717886346457], [-93.44019073954405, 45.1071037966857], [-93.44015510440043, 45.107030595795116], [-93.44011089338025, 45.10695977920073], [-93.44005841799317, 45.10689184979093], [-93.43999805315386, 45.10682729130479], [-93.43993022695679, 45.10676656117076], [-93.4398554194116, 45.106710091411735], [-93.43977416366559, 45.10665828233982], [-93.43968703710561, 45.10661150259104], [-93.43944046308368, 45.10649035083933], [-93.43931587620453, 45.10642515060772], [-93.43919700585876, 45.10635480085306], [-93.43908427600341, 45.106279552912504], [-93.43897808910359, 45.10619967440977], [-93.43887882233297, 45.106115451069655], [-93.43878683008845, 45.10602718310734], [-93.43870244144114, 45.10593518433789], [-93.43862595633036, 45.10583978309041], [-93.43855764553628, 45.10574131860743], [-93.43849775578565, 45.10564014372546], [-93.43846545868443, 45.10558066166014], [-93.43846399662446, 45.10557797034548], [-93.43833190159745, 45.105334693491514]]]}, "properties": {"name": "Grove Flats parcel", "county": "Hennepin"}}, {"type": "Feature", "geometry": {"type": "Polygon", "coordinates": [[[-93.45641567123432, 45.02194111488671], [-93.45653572376503, 45.021941853893125], [-93.45653571572926, 45.02194132191334], [-93.45654142991357, 45.02186401421408], [-93.45655599936904, 45.021787293143966], [-93.45657932910318, 45.02171166768639], [-93.45661126315255, 45.02163764076519], [-93.45665158961097, 45.0215657029237], [-93.45670004064463, 45.02149633412489], [-93.45675629493832, 45.02142999203959], [-93.45681997775351, 45.02136711924822], [-93.4568906671892, 45.021308132413594], [-93.45696789418922, 45.021253423181825], [-93.45705114505974, 45.02120335547159], [-93.45713986777929, 45.02115826094896], [-93.45723347200584, 45.02111843992744], [-93.45812601235951, 45.02077272170795], [-93.45821054545222, 45.02073611033925], [-93.45828970151969, 45.02069388169805], [-93.45836273737557, 45.02064642946035], [-93.45842897371807, 45.02059419925782], [-93.45848778995986, 45.02053767699546], [-93.45853863821084, 45.02047739149532], [-93.45858104193628, 45.02041390549945], [-93.45861460481937, 45.020347812933444], [-93.45863901450265, 45.02027973078915], [-93.4586540438275, 45.02021029551848], [-93.45865954950585, 45.02014015583708], [-93.45867240161303, 45.01888666744324], [-93.45867601641442, 45.0188337433679], [-93.45868401701395, 45.018788537908655], [-93.45869650326894, 45.0187438473446], [-93.458697189948, 45.01874178585239], [-93.45870826227338, 45.01871203511532], [-93.4587142909483, 45.018697883321146], [-93.45874771629671, 45.01863441890285], [-93.45823255692474, 45.01841901110975], [-93.45819099762825, 45.01839886686941], [-93.45815359301562, 45.01837497555965], [-93.45812100900423, 45.01834776300366], [-93.45787153301436, 45.01834625735276], [-93.45674214953424, 45.01833943642726], [-93.45660346181658, 45.018338598407894], [-93.45645255040627, 45.01864557769751], [-93.45509185798646, 45.0219329561721], [-93.45641567123432, 45.02194111488671]]]}, "properties": {"name": "Silverline Industrial Center parcel", "county": "Hennepin"}}, {"type": "Feature", "geometry": {"type": "Polygon", "coordinates": [[[-93.3952555584519, 45.07053208069297], [-93.39595408189447, 45.070538218167044], [-93.3959392295397, 45.07036792377386], [-93.39592204035148, 45.07017083816398], [-93.395904134002, 45.069965538171466], [-93.39587198381653, 45.06959686133214], [-93.39585609599048, 45.06941469258953], [-93.39585561856026, 45.06940920223477], [-93.39364858964342, 45.069387613601], [-93.39329731293688, 45.070514853145696], [-93.39372636227002, 45.070518630062395], [-93.3952555584519, 45.07053208069297]]]}, "properties": {"name": "Jasper Flats parcel", "county": "Hennepin"}}, {"type": "Feature", "geometry": {"type": "Polygon", "coordinates": [[[-93.48697986983814, 45.09629005955289], [-93.48700573605711, 45.098238743531844], [-93.49085428695636, 45.09822856233308], [-93.49084514310603, 45.09769015962383], [-93.49135964580164, 45.09740979595017], [-93.49203068617446, 45.09740290470279], [-93.49205655905831, 45.09740263930184], [-93.4920544780031, 45.09730106413848], [-93.49204101541403, 45.09664377018547], [-93.49201255291483, 45.096648941905116], [-93.49198387393292, 45.0966534727236], [-93.49195500258503, 45.09665735893617], [-93.49192597697538, 45.09666059767808], [-93.49189681612947, 45.09666318436626], [-93.49186755943786, 45.096665117930876], [-93.49183823100968, 45.096666393767116], [-93.49180948915476, 45.096667008139825], [-93.49163810571306, 45.096668783051854], [-93.49177507521775, 45.096936223011376], [-93.49154280628947, 45.0970752534592], [-93.49131212184359, 45.09721333322874], [-93.49108144007415, 45.09735140981698], [-93.49085922402563, 45.097484417558285], [-93.49081191973184, 45.097501814252986], [-93.4905119294299, 45.09761213169318], [-93.49044465973627, 45.097622569195956], [-93.49013024641306, 45.09767136012876], [-93.49004595812528, 45.09767417031512], [-93.48962386978725, 45.09768823749012], [-93.48927458095852, 45.09769987942823], [-93.48918116276818, 45.09762745345183], [-93.48887781633071, 45.09739227666129], [-93.4886844802713, 45.09724238288693], [-93.48848073739558, 45.09708442539479], [-93.48829238665041, 45.096938396592044], [-93.48819646209196, 45.096864027131275], [-93.4880557457424, 45.096797641851644], [-93.4877750911054, 45.09666523381904], [-93.4874486697807, 45.09651123344333], [-93.48704642924427, 45.09632146197405], [-93.48697986983814, 45.09629005955289]]]}, "properties": {"name": "Beacon Industrial Center parcel", "county": "Hennepin"}}, {"type": "Feature", "geometry": {"type": "Polygon", "coordinates": [[[-93.4404010445454, 45.10848318500755], [-93.44053138684728, 45.108483120695944], [-93.44053133230146, 45.108428270498486], [-93.44111449451634, 45.10842797745055], [-93.44117627205782, 45.10841085242618], [-93.4415053968456, 45.108410685070396], [-93.44164327751014, 45.10832149095199], [-93.44158386315931, 45.106410321388125], [-93.44179174910819, 45.106407080624074], [-93.4417869729984, 45.106253439045105], [-93.44177524898708, 45.10587634481396], [-93.44154757970259, 45.10587990508426], [-93.44135863580118, 45.10588285075969], [-93.44116707621382, 45.10588583863292], [-93.44096086092199, 45.10588905380615], [-93.44076727152198, 45.105892071350425], [-93.44043627763409, 45.105897229863075], [-93.44038947503101, 45.105943421049666], [-93.44029896170667, 45.10603275334976], [-93.44030292189298, 45.10616014990785], [-93.44030463461382, 45.10621527548947], [-93.4403046362517, 45.106215323192465], [-93.4401832516919, 45.10633512474764], [-93.44002329129498, 45.10649299652165], [-93.44000607058703, 45.10650997537691], [-93.44008574563853, 45.10656285708485], [-93.44016016644728, 45.10661944790836], [-93.44022898906256, 45.106679486332084], [-93.44029189611175, 45.10674269633533], [-93.44034859677934, 45.10680878469145], [-93.44039883066941, 45.10687744725418], [-93.44042749821202, 45.10692263355916], [-93.44046910794442, 45.10699994943258], [-93.4405026760706, 45.107079201079365], [-93.44052802519721, 45.107159970609054], [-93.440545022341, 45.10724183005622], [-93.44055357644267, 45.10732434859158], [-93.44055478705152, 45.10744008403804], [-93.44054635340358, 45.10755566764787], [-93.44052830540888, 45.107670698725315], [-93.4405007047431, 45.10778477464931], [-93.44046364872447, 45.10789749896036], [-93.44044508266039, 45.10794487030127], [-93.44040593226732, 45.108032399545536], [-93.44036104054727, 45.10811853493623], [-93.44015710782682, 45.10848330715008], [-93.4404010445454, 45.10848318500755]], [[-93.44058135310064, 45.10825569658591], [-93.44054435518969, 45.108333688308605], [-93.44032408016581, 45.10828129239586], [-93.44036107325941, 45.10820330076241], [-93.44038820417023, 45.108146106099255], [-93.44041533502033, 45.1080889105291], [-93.44044246582355, 45.10803171585233], [-93.44046959148146, 45.10797452028815], [-93.44049672217017, 45.107917324697596], [-93.44053371986763, 45.10783933118512], [-93.44075399337721, 45.107891726703336], [-93.44071699976041, 45.10796972027073], [-93.44068986926769, 45.10802691591239], [-93.44066273998537, 45.10808411064212], [-93.44063560938504, 45.10814130627012], [-93.44060848254435, 45.10819850187658], [-93.44058135310064, 45.10825569658591]], [[-93.44128804480282, 45.10786705109089], [-93.44140419988919, 45.10786524024917], [-93.44140931698388, 45.10802975370642], [-93.44129315645871, 45.108031561873794], [-93.44120797344966, 45.10803289108343], [-93.44112279168655, 45.108034217524185], [-93.44103760994668, 45.10803554750206], [-93.44092145322936, 45.108037357977146], [-93.4409163388062, 45.107872844487964], [-93.44103249900355, 45.10787103400454], [-93.44111768052659, 45.10786970763203], [-93.44120286204523, 45.107868381196], [-93.44128804480282, 45.10786705109089]], [[-93.44129656679921, 45.10814123691662], [-93.44141272370544, 45.1081394251591], [-93.44141783958402, 45.1083039386128], [-93.4413016823374, 45.1083057494766], [-93.44121650017807, 45.108307076888906], [-93.44113131800742, 45.108308403337524], [-93.44104613458198, 45.10830973242798], [-93.44096095240242, 45.10831105874954], [-93.44087577023926, 45.1083123877081], [-93.44075961296105, 45.10831419892087], [-93.44075449897193, 45.10814968543068], [-93.44087065593752, 45.10814787692481], [-93.44095583785617, 45.10814654797101], [-93.44104101979117, 45.10814522165412], [-93.44112620170097, 45.1081438925733], [-93.44121138489827, 45.10814256612449], [-93.44129656679921, 45.10814123691662]], [[-93.4407910454731, 45.10774603067241], [-93.44077886557233, 45.107827851454594], [-93.44054777672399, 45.1078106018611], [-93.44055995567354, 45.10772878020683], [-93.44056888552716, 45.1076687778441], [-93.44057781790484, 45.10760877547039], [-93.44058675023659, 45.107548769494755], [-93.4405956838489, 45.10748876711354], [-93.44060785885168, 45.10740694546473], [-93.44083894736556, 45.107424195839386], [-93.44082676759818, 45.10750601663072], [-93.44081783931007, 45.10756601900925], [-93.44080890721804, 45.10762602500187], [-93.44079997380894, 45.10768602739752], [-93.4407910454731, 45.10774603067241]], [[-93.44116008525168, 45.10746682496393], [-93.44115821215317, 45.10740650421141], [-93.44115615093045, 45.10734024302392], [-93.44115359279137, 45.10725798762905], [-93.44138590684484, 45.107254365185305], [-93.44138846023286, 45.10733662059341], [-93.44139052172419, 45.107402881775734], [-93.44139239633829, 45.107463202518645], [-93.4413947692198, 45.10753951746045], [-93.44116245910192, 45.10754314080695], [-93.44116008525168, 45.10746682496393]], [[-93.44081872171101, 45.107252257494274], [-93.44083533211294, 45.10733368900577], [-93.44060535472151, 45.10735721950698], [-93.44058873956165, 45.10727578888089], [-93.44057655878649, 45.107216073191985], [-93.44056437295961, 45.10715635842086], [-93.44055219224309, 45.10709664362808], [-93.44053557723028, 45.107015212089856], [-93.44076555454339, 45.106991680827846], [-93.44078216860474, 45.10707311233667], [-93.44079435464013, 45.10713282708462], [-93.44080653689498, 45.10719254274541], [-93.44081872171101, 45.107252257494274]], [[-93.44067755218641, 45.10685123920651], [-93.44073196024559, 45.10692393540739], [-93.44052664857453, 45.107000994044505], [-93.44047224070125, 45.10692829774609], [-93.44043234100023, 45.10687498657233], [-93.44039244137375, 45.106821675383905], [-93.44035254436405, 45.10676836417094], [-93.44031264487974, 45.10671505205291], [-93.44027274547693, 45.1066617408203], [-93.44021833825059, 45.10658904439415], [-93.44042364887514, 45.106511987209906], [-93.44047805628733, 45.106584683538536], [-93.4405179558265, 45.10663799469961], [-93.44055785671132, 45.106691305841096], [-93.44059775639957, 45.10674461697272], [-93.44063765234905, 45.10679792810435], [-93.44067755218641, 45.10685123920651]], [[-93.44079867146652, 45.10666310489967], [-93.440682517523, 45.106664915121534], [-93.44067740266777, 45.10650040158382], [-93.44079355629867, 45.10649859406889], [-93.44087873703798, 45.106497265176735], [-93.44096391651559, 45.106495938026235], [-93.44104909597488, 45.10649460901195], [-93.44113427545055, 45.1064932826346], [-93.44121945490099, 45.10649195349332], [-93.44130463436778, 45.106490626988894], [-93.44142078792643, 45.10648881523553], [-93.44142590362355, 45.10665332603651], [-93.44130975100259, 45.10665513779139], [-93.44122457004099, 45.10665646700585], [-93.44113939032526, 45.106657793451426], [-93.44105421060509, 45.106659119833495], [-93.4409690309013, 45.10666044885249], [-93.44088385117226, 45.106661775107554], [-93.44079867146652, 45.10666310489967]], [[-93.44131877273024, 45.10676472456359], [-93.4414349268442, 45.106762912793805], [-93.4414400426124, 45.10692742358601], [-93.44132388815812, 45.10692923446206], [-93.44123870806739, 45.10693056458381], [-93.44115352794446, 45.10693189104146], [-93.44106834656677, 45.10693322014092], [-93.44098316643499, 45.10693454647153], [-93.44086701195522, 45.106936357783226], [-93.44086189783175, 45.10677184695927], [-93.44097805197815, 45.106770035654044], [-93.44106323184464, 45.106768706627705], [-93.44114841172753, 45.106767380238324], [-93.44123359285626, 45.10676605108004], [-93.44131877273024, 45.10676472456359]], [[-93.4412881184591, 45.10700454637475], [-93.44140427178945, 45.10700273463927], [-93.44140938876745, 45.107167245421245], [-93.44129323383257, 45.10716905716809], [-93.44120805337737, 45.10717038636813], [-93.4411228716258, 45.10717171280914], [-93.44103769116167, 45.107173041882156], [-93.44092153236625, 45.107174850565336], [-93.44091642187306, 45.10701033973668], [-93.4410325765009, 45.10700852837422], [-93.44111775674132, 45.10700720200637], [-93.44120293695646, 45.10700587287457], [-93.4412881184591, 45.10700454637475]], [[-93.44128835696299, 45.107627930774385], [-93.44140451155747, 45.107626119033995], [-93.44140962862646, 45.10779063249824], [-93.44129347242044, 45.10779244334981], [-93.44120829102431, 45.107793770753176], [-93.44112310836644, 45.10779509989822], [-93.44103792695448, 45.107796426274376], [-93.44092177072213, 45.10779823674804], [-93.4409166563524, 45.1076337268525], [-93.44103281224443, 45.1076319154851], [-93.44111799339106, 45.10763058641322], [-93.44120317455408, 45.107629259978246], [-93.44128835696299, 45.107627930774385]], [[-93.44068210235946, 45.10633969032196], [-93.44044978881314, 45.106343067384934], [-93.44044740205796, 45.10626080949854], [-93.4404456543064, 45.106200485537734], [-93.44044390528789, 45.10614016158108], [-93.44044215629438, 45.10607984032421], [-93.44044040856224, 45.10601951726147], [-93.44043802183064, 45.10593725847003], [-93.44067033881636, 45.10593388141746], [-93.44067272079704, 45.10601614022244], [-93.440674470024, 45.10607646057536], [-93.44067621928285, 45.10613678452823], [-93.44067796727475, 45.10619710848527], [-93.44067971652115, 45.10625742973631], [-93.44068210235946, 45.10633969032196]], [[-93.44082750278501, 45.106012949475094], [-93.44082511550478, 45.105930691593876], [-93.44105742862173, 45.10592731376877], [-93.44105981496429, 45.10600957164879], [-93.44106156462638, 45.10606989559489], [-93.4410633142649, 45.1061302159397], [-93.44106506266421, 45.10619053988936], [-93.44106681233879, 45.1062508638334], [-93.44106919998298, 45.10633312170354], [-93.44083688140776, 45.10633649957337], [-93.4408344979103, 45.10625424168244], [-93.44083274975137, 45.106193917728994], [-93.44083100035317, 45.106133597380435], [-93.44082925220255, 45.106073273425615], [-93.44082750278501, 45.106012949475094]], [[-93.44114048665733, 45.10600862544636], [-93.44113810019901, 45.10592636756851], [-93.44137041200398, 45.10592298911177], [-93.44137280006686, 45.10600524697867], [-93.44137455003757, 45.106065568218305], [-93.44137629876217, 45.10612589216261], [-93.44137804876202, 45.106186216101335], [-93.44137979746725, 45.10624653644366], [-93.44138218558842, 45.10632879790619], [-93.44114987086736, 45.10633217639787], [-93.44114748437153, 45.106249917624794], [-93.44114573461894, 45.10618959458245], [-93.4411439861347, 45.106129270634334], [-93.44114223640437, 45.106068949390924], [-93.44114048665733, 45.10600862544636]]]}, "properties": {"name": "Fieldstone Terrace parcel", "county": "Hennepin"}}, {"type": "Feature", "geometry": {"type": "Polygon", "coordinates": [[[-93.45680321627982, 45.02214097197542], [-93.4574729221787, 45.0222079587277], [-93.4574729295002, 45.022207921790546], [-93.45747293809096, 45.0222078848484], [-93.4574774423899, 45.02219205948108], [-93.45748453733769, 45.02217671884005], [-93.45749412563084, 45.02216207665939], [-93.45698517409346, 45.02194462027951], [-93.45680640840878, 45.02194351978159], [-93.45680321627982, 45.02214097197542]]]}, "properties": {"name": "The Lakeview Apartments parcel", "county": "Hennepin"}}, {"type": "Feature", "geometry": {"type": "Polygon", "coordinates": [[[-93.1583652794606, 45.06957114820206, 0], [-93.15836040770665, 45.0691968092298, 0], [-93.15758485903932, 45.06919376075035, 0], [-93.15758762622157, 45.069573737303934, 0], [-93.1583652794606, 45.06957114820206, 0]]]}, "properties": {"name": "Pinnacle Crossing parcel", "county": "Ramsey"}}, {"type": "Feature", "geometry": {"type": "Polygon", "coordinates": [[[-93.17217147464098, 45.01419880533549, 0], [-93.1724133085848, 45.014912980072076, 0], [-93.17440496075707, 45.014908928370424, 0], [-93.17452149015719, 45.014906664932454, 0], [-93.17463766314907, 45.014897280892875, 0], [-93.17475304503198, 45.01488081136525, 0], [-93.17486720406535, 45.014857317975924, 0], [-93.17497971308434, 45.014826888633394, 0], [-93.17509015109822, 45.01478963719941, 0], [-93.17519810486559, 45.01474570306286, 0], [-93.17530317044071, 45.01469525061826, 0], [-93.17540495468502, 45.014638468650595, 0], [-93.17542941225149, 45.01462273084528, 0], [-93.1754702998475, 45.01459480451716, 0], [-93.17546619895099, 45.0145918951624, 0], [-93.17570937479792, 45.014419458798756, 0], [-93.17578573997406, 45.01436826114713, 0], [-93.1758645066754, 45.014320841252356, 0], [-93.17594548817321, 45.01427731153066, 0], [-93.1756395198957, 45.01427789836445, 0], [-93.17552704492306, 45.01425554079954, 0], [-93.17543955792308, 45.01422480748537, 0], [-93.175342142171, 45.01416635568583, 0], [-93.17533849311832, 45.014010197650904, 0], [-93.17575696117889, 45.01369479046146, 0], [-93.17568835603338, 45.01369520835407, 0], [-93.17349631252085, 45.01324349888826, 0], [-93.17353225878054, 45.01334460664973, 0], [-93.17202841854754, 45.01361360513711, 0], [-93.17219980850281, 45.01409570334657, 0], [-93.17212791480458, 45.01418031050937, 0], [-93.17217147464098, 45.01419880533549, 0]]]}, "properties": {"name": "Prairie Logistics Center parcel", "county": "Ramsey"}}, {"type": "Feature", "geometry": {"type": "Polygon", "coordinates": [[[-93.19009906691207, 45.033654619647976, 0], [-93.19027572096698, 45.033735384036326, 0], [-93.19031069213874, 45.033648785713744, 0], [-93.19034126281313, 45.03356053784581, 0], [-93.190367355583, 45.033470863882535, 0], [-93.19038890437955, 45.03337999088492, 0], [-93.19040795444165, 45.03327259500488, 0], [-93.19041217603609, 45.033241694287554, 0], [-93.1904445107324, 45.03296385561257, 0], [-93.1904723025812, 45.0326855258171, 0], [-93.1904955441661, 45.03240677917473, 0], [-93.18960348293841, 45.032418756242784, 0], [-93.18961858219606, 45.032984366041624, 0], [-93.18961731597678, 45.033042926495355, 0], [-93.18961082325595, 45.03310113967796, 0], [-93.1895991559554, 45.03315854006255, 0], [-93.18958240737778, 45.03321466862213, 0], [-93.18956071146032, 45.0332690765004, 0], [-93.18953237379145, 45.03332604310449, 0], [-93.18949937324484, 45.03338044146274, 0], [-93.19009906691207, 45.033654619647976, 0]]]}, "properties": {"name": "Summit Commerce Park parcel", "county": "Ramsey"}}, {"type": "Feature", "geometry": {"type": "Polygon", "coordinates": [[[-93.15442410750127, 45.07170697565422, 0], [-93.15428178603075, 45.071835002877116, 0], [-93.15448678684656, 45.07183411946744, 0], [-93.15485170691746, 45.07183339433705, 0], [-93.15522574643917, 45.07183245767997, 0], [-93.15521013346026, 45.07178808243777, 0], [-93.15518992542583, 45.071745602294456, 0], [-93.15516534794584, 45.071705491514, 0], [-93.15513057269162, 45.071660751251535, 0], [-93.15509188991714, 45.07161934289066, 0], [-93.1550496173031, 45.07158160649585, 0], [-93.1550041020116, 45.071547851975694, 0], [-93.15495571783511, 45.07151835653781, 0], [-93.15474148486894, 45.07142147210303, 0], [-93.15442410750127, 45.07170697565422, 0]]]}, "properties": {"name": "Timberline Distribution parcel", "county": "Ramsey"}}, {"type": "Feature", "geometry": {"type": "Polygon", "coordinates": [[[-93.1764043984401, 45.01283420746837, 0], [-93.17638441147237, 45.012738477929894, 0], [-93.17635557654023, 45.01274488801151, 0], [-93.17631308076609, 45.01275242387631, 0], [-93.17626992467821, 45.01275290570264, 0], [-93.17622727124615, 45.01274632050627, 0], [-93.1761862698939, 45.01273284574494, 0], [-93.17614802552528, 45.01271284453633, 0], [-93.17611356874889, 45.01268685587267, 0], [-93.17608382810539, 45.01265558009606, 0], [-93.17605960504518, 45.01261986002562, 0], [-93.17584435179684, 45.01201752632676, 0], [-93.17582524501813, 45.01197722808183, 0], [-93.17580039040378, 45.01194019747716, 0], [-93.17577033421423, 45.01190724837995, 0], [-93.1757357370314, 45.01187910495307, 0], [-93.17562311204819, 45.01179886488394, 0], [-93.17550824475161, 45.011721869041736, 0], [-93.17539122856543, 45.0116481800486, 0], [-93.17512638956676, 45.0114864027206, 0], [-93.17328995549427, 45.011814916561505, 0], [-93.17314958670838, 45.011981688330565, 0], [-93.17328721233096, 45.012039989164464, 0], [-93.17330697283614, 45.012095569038074, 0], [-93.17351321539238, 45.012058817131845, 0], [-93.17378007683544, 45.01280962630716, 0], [-93.17377970502851, 45.012809671460666, 0], [-93.17387926975232, 45.01308978062247, 0], [-93.17353398211759, 45.01315155139996, 0], [-93.17349631252085, 45.01324349888826, 0], [-93.17568835603338, 45.01369520835407, 0], [-93.1757608672353, 45.013694766961834, 0], [-93.17598949368063, 45.0135422780969, 0], [-93.17602858842427, 45.01351424603135, 0], [-93.17606542705414, 45.013483308820284, 0], [-93.17609979419359, 45.01344964733777, 0], [-93.176113924465, 45.01342339765375, 0], [-93.17612432099796, 45.013395458029855, 0], [-93.17613078729714, 45.01336635652722, 0], [-93.17613320114899, 45.01333664316658, 0], [-93.17613359681135, 45.01323112030598, 0], [-93.17615543006154, 45.013060606318355, 0], [-93.17617027860032, 45.01304460905136, 0], [-93.17618741191178, 45.013031087169345, 0], [-93.17620642187802, 45.01302036276545, 0], [-93.17622685567892, 45.0130126912965, 0], [-93.17626745971289, 45.01299963870015, 0], [-93.17629459316794, 45.01299091667847, 0], [-93.17634400655145, 45.012976952284845, 0], [-93.17638358120543, 45.01296947542138, 0], [-93.17642370770075, 45.012966022726964, 0], [-93.17646397789778, 45.01296662932007, 0], [-93.17650398219531, 45.01297128903084, 0], [-93.17648841651759, 45.01289364720724, 0], [-93.17653383912273, 45.01288886332278, 0], [-93.17651985306802, 45.0128220470275, 0], [-93.1764043984401, 45.01283420746837, 0]]]}, "properties": {"name": "Hennepin Marketplace parcel", "county": "Ramsey"}}, {"type": "Feature", "geometry": {"type": "Polygon", "coordinates": [[[-93.29995298581657, 44.9514559720928], [-93.30026257346111, 44.9518618394183], [-93.30069991106973, 44.95152399218129], [-93.30070194847859, 44.95120647619799], [-93.30030220492756, 44.951205182100175], [-93.300305569676, 44.950681351043315], [-93.29943770232431, 44.95067849778375], [-93.29943287808732, 44.95136054648327], [-93.29991917688447, 44.95141164769337], [-93.29995298581657, 44.9514559720928]]]}, "properties": {"name": "Bluff Crossing parcel", "county": "Hennepin"}}, {"type": "Feature", "geometry": {"type": "Polygon", "coordinates": [[[-93.28829461645869, 44.94910625804835], [-93.28875240653127, 44.94910697572359], [-93.2887533561406, 44.94898159604598], [-93.28829561426197, 44.948980683809474], [-93.28829461645869, 44.94910625804835]]]}, "properties": {"name": "Larkspur Shopping Center parcel", "county": "Hennepin"}}, {"type": "Feature", "geometry": {"type": "Polygon", "coordinates": [[[-93.28320332243679, 44.94313073870934], [-93.28320331508225, 44.94313233658579], [-93.28353918135906, 44.943132258487964], [-93.28353987992247, 44.94300894260792], [-93.28320393894744, 44.94300966543758], [-93.28320332243679, 44.94313073870934]]]}, "properties": {"name": "Como Shopping Center parcel", "county": "Hennepin"}}, {"type": "Feature", "geometry": {"type": "Polygon", "coordinates": [[[-93.29333946110557, 44.94623368162744], [-93.29333812735912, 44.94635932794946], [-93.29383517880801, 44.94635930056096], [-93.29383651155736, 44.94623367133951], [-93.29333946110557, 44.94623368162744]]]}, "properties": {"name": "Vantage Crossing parcel", "county": "Hennepin"}}]}